[{"OBJECT_NAME":"LAPAN-A3","OBJECT_ID":"2016-040E","EPOCH":"2026-03-09T23:01:57.724896","MEAN_MOTION":15.3238951,"ECCENTRICITY":0.00109839,"INCLINATION":97.1488,"RA_OF_ASC_NODE":68.4254,"ARG_OF_PERICENTER":22.062,"MEAN_ANOMALY":338.1093,"EPHEMERIS_TYPE":0,"CLASSIFICATION_TYPE":"U","NORAD_CAT_ID":41603,"ELEMENT_SET_NO":999,"REV_AT_EPOCH":53961,"BSTAR":0.00017567445,"MEAN_MOTION_DOT":5.428e-5,"MEAN_MOTION_DDOT":0},{"OBJECT_NAME":"STARLINK-32289","OBJECT_ID":"2024-152T","EPOCH":"2026-03-09T22:14:32.231616","MEAN_MOTION":15.30189101,"ECCENTRICITY":0.00011658,"INCLINATION":53.1594,"RA_OF_ASC_NODE":267.5765,"ARG_OF_PERICENTER":93.5355,"MEAN_ANOMALY":266.5779,"EPHEMERIS_TYPE":0,"CLASSIFICATION_TYPE":"U","NORAD_CAT_ID":60737,"ELEMENT_SET_NO":999,"REV_AT_EPOCH":8688,"BSTAR":1.330219e-5,"MEAN_MOTION_DOT":3.5e-7,"MEAN_MOTION_DDOT":0}]
